ONEWEB-0424             
1 50497U 21132AE  24028.89713545  .00000044  00000+0  78424-4 0  9998
2 50497  87.9241 148.6444 0001462  79.6468 280.4829 13.18685859108222
ONEWEB-0426             
1 50498U 21132AF  24029.39032688  .00000047  00000+0  85483-4 0  9993
2 50498  87.9239 148.5698 0001234 131.0630 229.0609 13.18686080108245
ONEWEB-0427             
1 50499U 21132AG  24028.89554231 -.00000006  00000+0 -47367-4 0  9997
2 50499  87.9239 148.6433 0001326 108.2778 251.8498 13.18687307106919
ONEWEB-0429             
1 50500U 21132AH  24029.41403799  .00000029  00000+0  40498-4 0  9992
2 50500  87.9245 148.5378 0001690 106.7013 253.4304 13.18688451108248
ONEWEB-0430             
1 50501U 21132AJ  24028.87182589 -.00000051  00000+0 -16151-3 0  9998
2 50501  87.9243 148.6547 0001670  87.5560 272.5764 13.18688770108210
ONEWEB-0432             
1 50502U 21132AK  24029.35870268  .00000076  00000+0  16024-3 0  9995
2 50502  87.9240 148.5529 0001643 100.7951 259.3366 13.18686582108242
ONEWEB-0450             
1 50504U 21132AM  24028.88448504 -.00000011  00000+0 -61604-4 0  9994
2 50504  87.9243 148.6592 0002014  97.5979 262.5382 13.18685242106901
